SL-16 R/B               
1 23405U 94077B   26186.21062654 -.00000162  00000+0 -58264-4 0  9999
2 23405  70.9833 105.2455 0003954 311.3208  48.7575 14.15577689632861
ARIANE 40+ R/B          
1 23561U 95021B   26186.18483927  .00000364  00000+0  12968-3 0  9990
2 23561  98.4404 255.9993 0007536 142.3921 242.2801 14.39844056636157
SL-16 R/B               
1 23705U 95058B   26185.72859278 -.00000231  00000+0 -93782-4 0  9994
2 23705  71.0225 294.5297 0014636 296.5076  63.4546 14.15509910584414
SL-16 R/B               
1 24298U 96051B   26186.23196224  .00000167  00000+0  11718-3 0  9992
2 24298  70.7654 286.4607 0016986 311.2989  48.6667 14.12452671538244
ORBVIEW 2 (SEASTAR)     
1 24883U 97037A   26185.93261805  .00000341  00000+0  13460-3 0  9991
2 24883  98.8705 353.4447 0003296  81.1713 278.9845 14.35563485525295
SL-16 R/B               
1 25400U 98043G   26185.83335476  .00000068  00000+0  47636-4 0  9999
2 25400  98.8372 140.1451 0010553  40.0130 320.1826 14.26071618455684
SL-16 R/B               
1 25407U 98045B   26185.25832512  .00000091  00000+0  70006-4 0  9990
2 25407  71.0127 296.4278 0008694 220.5658 139.4818 14.16207563443607
ISS (ZARYA)             
1 25544U 98067A   26186.12116982  .00009813  00000+0  18661-3 0  9998
2 25544  51.6302 211.3234 0006740 257.5366 102.4869 15.48901138574530
CZ-4B R/B               
1 25732U 99025C   26186.05091940  .00000056  00000+0  47559-4 0  9999
2 25732  98.6474 227.4391 0037216   9.0422  20.4256 14.18286601404805
OKEAN-O                 
1 25860U 99039A   26186.12290608  .00000820  00000+0  11393-3 0  9991
2 25860  97.9306 244.7141 0001098  72.7972 287.3360 14.80490030451763
SL-16 R/B               
1 25861U 99039B   26186.12802664  .00000698  00000+0  94937-4 0  9992
2 25861  97.9827 244.9393 0013635 232.9720 127.0246 14.81864375454252
DELTA 2 R/B             
1 25876U 99041E   26186.01234152  .00001618  00000+0  29803-3 0  9992
2 25876  51.7610 192.5846 0501154 334.6899  23.0224 14.12057066379603
HELIOS 1B               
1 25977U 99064A   26186.20000744  .00001925  00000+0  21578-3 0  9990
2 25977  98.1597  91.8600 0002345  66.8203 293.3259 14.88058535702733
TERRA                   
1 25994U 99068A   26186.16789484  .00000558  00000+0  12254-3 0  9995
2 25994  97.9446 235.0004 0002903 143.1240 291.7934 14.61118688412234
SL-16 R/B               
1 26070U 00006B   26186.08109162 -.00000103  00000+0 -27904-4 0  9992
2 26070  71.0008 211.0003 0016707 354.6233   5.4707 14.15841068365170
TITAN 4B R/B            
1 26474U 00047B   26186.14054019  .00004279  00000+0  26239-3 0  9997
2 26474  67.9890  70.0356 0045934 268.8309  90.7578 15.10299973410643
ENVISAT                 
1 27386U 02009A   26186.34698652  .00000142  00000+0  59958-4 0  9999
2 27386  98.3842 137.2612 0001378  84.9699  80.2438 14.39069395276096
IDEFIX & ARIANE 42P R/B 
1 27422U 02021B   26185.81857291  .00000327  00000+0  14057-3 0  9996
2 27422  98.5942 123.1108 0011238 197.4328 162.6471 14.31090864260776
AQUA                    
1 27424U 02022A   26186.34450215  .00001069  00000+0  22208-3 0  9994
2 27424  98.4287 155.9913 0000702  91.5061  69.7527 14.62187814285927
CZ-4B R/B               
1 27432U 02024C   26186.12884141  .00000064  00000+0  55593-4 0  9998
2 27432  98.8689 238.8317 0050929  50.2573 336.1263 14.14567236245843
MIDORI II (ADEOS-II)    
1 27597U 02056A   26185.84841043  .00000335  00000+0  14930-3 0  9997
2 27597  98.7887 145.2591 0001870  53.7756 306.3598 14.29359530227034
H-2A R/B                
1 27601U 02056E   26185.61907970  .00000341  00000+0  13386-3 0  9991
2 27601  98.3321 141.6590 0070195 172.2528   1.0782 14.33830472230861
CZ-4B R/B               
1 28059U 03049C   26185.76596639  .00000434  00000+0  11093-3 0  9990
2 28059  98.6902 185.3127 0047109 233.6050 126.0796 14.55112062203628
CZ-2C R/B               
1 28222U 04012C   26185.75863214  .00193901  00000+0  89692-3 0  9990
2 28222  97.7055 263.5140 0010997 222.8747 137.1665 15.82889358222675
SL-16 R/B               
1 28353U 04021B   26185.91001211  .00000313  00000+0  18749-3 0  9993
2 28353  71.0018 346.4932 0006581 233.8193 126.2321 14.14612187139410
CZ-4B R/B               
1 28415U 04035C   26186.04392065  .00012684  00000+0  42192-3 0  9995
2 28415  97.3357 218.9183 0028807 270.8925  88.9016 15.30890104197859
CZ-2C R/B               
1 28480U 04046B   26185.51043802  .00000167  00000+0  76779-4 0  9994
2 28480  98.1930  93.2075 0139512 168.8775 191.5546 14.27030997125161
ARIANE 5 R/B            
1 28499U 04049H   26185.98049026  .00000805  00000+0  94897-4 0  9992
2 28499  98.2735 358.9222 0083195 331.7466  27.9248 14.85471446163203
CZ-2D R/B               
1 28738U 05024B   26185.99585129  .00090388  00000+0  69632-3 0  9995
2 28738  97.3475 206.3375 0000653 247.6617 112.4577 15.71708766158131
ALOS (DAICHI)           
1 28931U 06002A   26185.85546717  .00001571  00000+0  26968-3 0  9993
2 28931  98.1330 141.3686 0000840  70.0531 290.0765 14.70089410 90693
