OBJECT_NAME,OBJECT_ID,EPOCH,MEAN_MOTION,ECCENTRICITY,INCLINATION,RA_OF_ASC_NODE,ARG_OF_PERICENTER,MEAN_ANOMALY,EPHEMERIS_TYPE,CLASSIFICATION_TYPE,NORAD_CAT_ID,ELEMENT_SET_NO,REV_AT_EPOCH,BSTAR,MEAN_MOTION_DOT,MEAN_MOTION_DDOT
SL-16 R/B,1994-077B,2026-07-05T05:03:18.133056,14.15577689,.00039546,70.9833,105.2455,311.3208,48.7575,0,U,23405,999,63286,-.58264322E-4,-.162E-5,0
ARIANE 40+ R/B,1995-021B,2026-07-05T04:26:10.112928,14.39844056,.00075362,98.4404,255.9993,142.3921,242.2801,0,U,23561,999,63615,.12967613E-3,.364E-5,0
SL-16 R/B,1995-058B,2026-07-04T17:29:10.416192,14.15509910,.00146363,71.0225,294.5297,296.5076,63.4546,0,U,23705,999,58441,-.93782467E-4,-.231E-5,0
SL-16 R/B,1996-051B,2026-07-05T05:34:01.537536,14.12452671,.00169869,70.7654,286.4607,311.2989,48.6667,0,U,24298,999,53824,.11717813E-3,.167E-5,0
ORBVIEW 2 (SEASTAR),1997-037A,2026-07-04T22:22:58.199520,14.35563485,.00032963,98.8705,353.4447,81.1713,278.9845,0,U,24883,999,52529,.1345998E-3,.341E-5,0
SL-16 R/B,1998-043G,2026-07-04T20:00:01.851264,14.26071618,.00105531,98.8372,140.1451,40.0130,320.1826,0,U,25400,999,45568,.47635612E-4,.68E-6,0
SL-16 R/B,1998-045B,2026-07-04T06:11:59.290368,14.16207563,.00086944,71.0127,296.4278,220.5658,139.4818,0,U,25407,999,44360,.70006074E-4,.91E-6,0
ISS (ZARYA),1998-067A,2026-07-05T02:54:29.072448,15.48901138,.00067403,51.6302,211.3234,257.5366,102.4869,0,U,25544,999,57453,.18660962E-3,.9813E-4,0
CZ-4B R/B,1999-025C,2026-07-05T01:13:19.436160,14.18286601,.00372169,98.6474,227.4391,9.0422,20.4256,0,U,25732,999,40480,.47559085E-4,.56E-6,0
OKEAN-O,1999-039A,2026-07-05T02:56:59.085312,14.80490030,.00010986,97.9306,244.7141,72.7972,287.3360,0,U,25860,999,45176,.11392551E-3,.82E-5,0
SL-16 R/B,1999-039B,2026-07-05T03:04:21.501696,14.81864375,.00136355,97.9827,244.9393,232.9720,127.0246,0,U,25861,999,45425,.94936593E-4,.698E-5,0
DELTA 2 R/B,1999-041E,2026-07-05T00:17:46.307328,14.12057066,.0501154,51.7610,192.5846,334.6899,23.0224,0,U,25876,999,37960,.29802796E-3,.1618E-4,0
HELIOS 1B,1999-064A,2026-07-05T04:48:00.642816,14.88058535,.00023455,98.1597,91.8600,66.8203,293.3259,0,U,25977,999,70273,.21578051E-3,.1925E-4,0
TERRA,1999-068A,2026-07-05T04:01:46.114176,14.61118688,.00029039,97.9446,235.0004,143.1240,291.7934,0,U,25994,999,41223,.12253734E-3,.558E-5,0
SL-16 R/B,2000-006B,2026-07-05T01:56:46.315968,14.15841068,.00167074,71.0008,211.0003,354.6233,5.4707,0,U,26070,999,36517,-.27904091E-4,-.103E-5,0
TITAN 4B R/B,2000-047B,2026-07-05T03:22:22.672416,15.10299973,.0045934,67.9890,70.0356,268.8309,90.7578,0,U,26474,999,41064,.26239365E-3,.4279E-4,0
ENVISAT,2002-009A,2026-07-05T08:19:39.635328,14.39069395,.00013785,98.3842,137.2612,84.9699,80.2438,0,U,27386,999,27609,.59957773E-4,.142E-5,0
IDEFIX & ARIANE 42P R/B,2002-021B,2026-07-04T19:38:44.699424,14.31090864,.00112387,98.5942,123.1108,197.4328,162.6471,0,U,27422,999,26077,.1405739E-3,.327E-5,0
AQUA,2002-022A,2026-07-05T08:16:04.985760,14.62187814,.00007023,98.4287,155.9913,91.5061,69.7527,0,U,27424,999,28592,.222078E-3,.1069E-4,0
CZ-4B R/B,2002-024C,2026-07-05T03:05:31.897824,14.14567236,.00509291,98.8689,238.8317,50.2573,336.1263,0,U,27432,999,24584,.55593108E-4,.64E-6,0
MIDORI II (ADEOS-II),2002-056A,2026-07-04T20:21:42.661152,14.29359530,.00018705,98.7887,145.2591,53.7756,306.3598,0,U,27597,999,22703,.14929897E-3,.335E-5,0
H-2A R/B,2002-056E,2026-07-04T14:51:28.486080,14.33830472,.00701952,98.3321,141.6590,172.2528,1.0782,0,U,27601,999,23086,.13385784E-3,.341E-5,0
CZ-4B R/B,2003-049C,2026-07-04T18:22:59.496096,14.55112062,.00471094,98.6902,185.3127,233.6050,126.0796,0,U,28059,999,20362,.11092817E-3,.434E-5,0
CZ-2C R/B,2004-012C,2026-07-04T18:12:25.816896,15.82889358,.00109979,97.7055,263.5140,222.8747,137.1665,0,U,28222,999,22267,.89692143E-3,.193901E-2,0
SL-16 R/B,2004-021B,2026-07-04T21:50:25.046304,14.14612187,.00065811,71.0018,346.4932,233.8193,126.2321,0,U,28353,999,13941,.18748781E-3,.313E-5,0
CZ-4B R/B,2004-035C,2026-07-05T01:03:14.744160,15.30890104,.00288071,97.3357,218.9183,270.8925,88.9016,0,U,28415,999,19785,.42192314E-3,.12684E-3,0
CZ-2C R/B,2004-046B,2026-07-04T12:15:01.844928,14.27030997,.0139512,98.1930,93.2075,168.8775,191.5546,0,U,28480,999,12516,.7677858E-4,.167E-5,0
ARIANE 5 R/B,2004-049H,2026-07-04T23:31:54.358464,14.85471446,.00831951,98.2735,358.9222,331.7466,27.9248,0,U,28499,999,16320,.9489696E-4,.805E-5,0
CZ-2D R/B,2005-024B,2026-07-04T23:54:01.551456,15.71708766,.00006538,97.3475,206.3375,247.6617,112.4577,0,U,28738,999,15813,.69631862E-3,.90388E-3,0
ALOS (DAICHI),2006-002A,2026-07-04T20:31:52.363488,14.70089410,.00008405,98.1330,141.3686,70.0531,290.0765,0,U,28931,999,9069,.2696774E-3,.1571E-4,0
